NORAD_CAT_ID,OBJECT_NAME,OBJECT_TYPE,EPOCH,MEAN_MOTION,ECCENTRICITY,INCLINATION,RA_OF_ASC_NODE,ARG_OF_PERICENTER,MEAN_ANOMALY,BSTAR,MEAN_MOTION_DOT,MEAN_MOTION_DDOT,TLE_LINE0,TLE_LINE1,TLE_LINE2,SEMIMAJOR_AXIS,PERIOD,APOGEE,PERIGEE,DECAYED
53934.0,STARLINK-4775,PAYLOAD,2022-11-30 14:00:01,15.731978,0.0003794,53.213,283.2825,2.3211,82.8816,0.00020247,0.00027893,0.0,0 STARLINK-4775,1 53934U 22119BA  22334.58335648  .00027893  00000-0  20247-3 0  9992,2 53934  53.2130 283.2825 0003794   2.3211  82.8816 15.73197800 10928,6727.901,91.533,352.319,347.214,0.0
53934.0,STARLINK-4775,PAYLOAD,2022-11-30 22:00:00,15.73320147,0.0003706,53.2147,281.623,4.7575,169.3024,-0.0017152,-0.00236059,0.0,0 STARLINK-4775,1 53934U 22119BA  22334.91667824 -.00236059  00000-0 -17152-2 0  9991,2 53934  53.2147 281.6230 0003706   4.7575 169.3024 15.73320147  1306,6727.553000000001,91.526,351.911,346.9240000000001,0.0
53934.0,STARLINK-4775,PAYLOAD,2022-12-01 06:00:00,15.73073091,0.0004152,53.2165,279.9689,4.0978,258.9541,0.0013745,0.00195831,0.0,0 STARLINK-4775,1 53934U 22119BA  22335.25001157  .00195831  00000-0  13745-2 0  9994,2 53934  53.2165 279.9689 0004152   4.0978 258.9541 15.73073091 11022,6728.257,91.541,352.916,347.32800000000015,0.0
53934.0,STARLINK-4775,PAYLOAD,2022-12-01 14:00:01,15.73197743,0.0003779,53.2131,278.3337,5.0034,346.9586,0.00043251,0.00060529,0.0,0 STARLINK-4775,1 53934U 22119BA  22335.58334491  .00060529  00000-0  43251-3 0  9991,2 53934  53.2131 278.3337 0003779   5.0034 346.9586 15.73197743  1304,6727.901999999999,91.533,352.309,347.224,0.0
53934.0,STARLINK-4775,PAYLOAD,2022-12-01 20:00:01,15.73249789,0.0003682,53.2131,277.0957,5.3599,323.3696,0.00021671,0.00029973,0.0,0 STARLINK-4775,1 53934U 22119BA  22335.83335648  .00029973  00000-0  21671-3 0  9994,2 53934  53.2131 277.0957 0003682   5.3599 323.3696 15.73249789 11119,6727.753000000002,91.53,352.095,347.141,0.0
53934.0,STARLINK-4775,PAYLOAD,2022-12-01 22:00:00,15.73282361,0.0003737,53.2131,276.6838,5.5127,75.3713,-0.00041721,-0.00059,0.0,0 STARLINK-4775,1 53934U 22119BA  22335.91667824 -.00059000  00000-0 -41721-3 0  9991,2 53934  53.2131 276.6838 0003737   5.5127  75.3713 15.73282361  1309,6727.66,91.528,352.039,347.011,0.0
53934.0,STARLINK-4775,PAYLOAD,2022-12-02 06:00:00,15.73210478,0.0004019,53.2142,275.0306,4.1094,165.7857,-0.00027212,-0.00038676,0.0,0 STARLINK-4775,1 53934U 22119BA  22336.25001157 -.00038676  00000-0 -27212-3 0  9995,2 53934  53.2142 275.0306 0004019   4.1094 165.7857 15.73210478 11186,6727.865,91.533,352.434,347.026,0.0
53934.0,STARLINK-4775,PAYLOAD,2022-12-02 14:00:01,15.73145302,0.0003763,53.2125,273.3843,4.7184,254.1071,0.00029563,0.00040986,0.0,0 STARLINK-4775,1 53934U 22119BA  22336.58334491  .00040986  00000-0  29563-3 0  9997,2 53934  53.2125 273.3843 0003763   4.7184 254.1071 15.73145302  1302,6728.051,91.536,352.4480000000001,347.384,0.0
53934.0,STARLINK-4775,PAYLOAD,2022-12-02 22:00:00,15.73222113,0.0003652,53.2128,271.7348,5.4315,342.2575,-0.00024622,-0.00035082,0.0,0 STARLINK-4775,1 53934U 22119BA  22336.91667824 -.00035082  00000-0 -24622-3 0  9997,2 53934  53.2128 271.7348 0003652   5.4315 342.2575 15.73222113 11280,6727.831999999999,91.532,352.154,347.24,0.0
53934.0,STARLINK-4775,PAYLOAD,2022-12-03 06:00:00,15.73217081,0.0003863,53.2132,270.0866,5.0599,71.579,3.324e-05,4.048e-05,0.0,0 STARLINK-4775,1 53934U 22119BA  22337.25001157  .00004048  00000-0  33240-4 0  9999,2 53934  53.2132 270.0866 0003863   5.0599  71.5790 15.73217081 11342,6727.846,91.532,352.31,347.11300000000006,0.0
53934.0,STARLINK-4775,PAYLOAD,2022-12-03 14:00:01,15.73221825,0.0003714,53.2132,268.4351,5.761,159.8254,-6.3294e-05,-9.509e-05,0.0,0 STARLINK-4775,1 53934U 22119BA  22337.58334491 -.00009509  00000-0 -63294-4 0  9996,2 53934  53.2132 268.4351 0003714   5.7610 159.8254 15.73221825  1309,6727.833000000001,91.532,352.19699999999995,347.199,0.0
53934.0,STARLINK-4775,PAYLOAD,2022-12-03 22:00:00,15.73201781,0.0003743,53.2133,266.7857,10.0242,244.5168,0.00017651,0.0002423,0.0,0 STARLINK-4775,1 53934U 22119BA  22337.91667824  .00024230  00000-0  17651-3 0  9993,2 53934  53.2133 266.7857 0003743  10.0242 244.5168 15.73201781  1309,6727.89,91.533,352.273,347.237,0.0
53934.0,STARLINK-4775,PAYLOAD,2022-12-04 14:00:01,15.73151783,0.0003565,53.2128,263.4859,5.3402,67.1032,0.00021096,0.00029034,0.0,0 STARLINK-4775,1 53934U 22119BA  22338.58334491  .00029034  00000-0  21096-3 0  9993,2 53934  53.2128 263.4859 0003565   5.3402  67.1032 15.73151783 11559,6728.033,91.536,352.296,347.499,0.0
53934.0,STARLINK-4775,PAYLOAD,2022-12-04 22:00:00,15.7320655,0.0003545,53.213,261.8369,5.7584,155.5634,0.00018442,0.00025352,0.0,0 STARLINK-4775,1 53934U 22119BA  22338.91667824  .00025352  00000-0  18442-3 0  9999,2 53934  53.2130 261.8369 0003545   5.7584 155.5634 15.73206550  1308,6727.876,91.533,352.12699999999984,347.356,0.0
53934.0,STARLINK-4775,PAYLOAD,2022-12-05 06:00:00,15.73197267,0.0003792,53.2131,260.1888,3.5106,246.7747,0.00035629,0.00049687,0.0,0 STARLINK-4775,1 53934U 22119BA  22339.25001157  .00049687  00000-0  35629-3 0  9991,2 53934  53.2131 260.1888 0003792   3.5106 246.7747 15.73197267 11658,6727.903,91.533,352.319,347.217,0.0
53934.0,STARLINK-4775,PAYLOAD,2022-12-05 14:00:01,15.73216478,0.0003577,53.2135,258.53700000000003,4.178,335.1152,0.00030061,0.00041818,0.0,0 STARLINK-4775,1 53934U 22119BA  22339.58335648  .00041818  00000-0  30061-3 0  9995,2 53934  53.2135 258.5370 0003577   4.1780 335.1152 15.73216478  1305,6727.848000000001,91.532,352.12,347.307,0.0
53934.0,STARLINK-4775,PAYLOAD,2022-12-05 16:00:00,15.73234243,0.0003548,53.2134,258.1244,5.1925,86.272,6.6965e-05,8.801e-05,0.0,0 STARLINK-4775,1 53934U 22119BA  22339.66667824  .00008801  00000-0  66965-4 0  9996,2 53934  53.2134 258.1244 0003548   5.1925  86.2720 15.73234243 11722,6727.7980000000025,91.531,352.05,347.276,0.0
53934.0,STARLINK-4775,PAYLOAD,2022-12-05 23:14:11,15.73272083,0.0003654,53.2135,256.6338,4.1068,355.9981,0.00033806,0.0004725,0.0,0 STARLINK-4775,1 53934U 22119BA  22339.96818609  .00047250  00000-0  33806-3 0  9996,2 53934  53.2135 256.6338 0003654   4.1068 355.9981 15.73272083 11768,6727.69,91.529,352.01300000000015,347.096,0.0
53934.0,STARLINK-4775,PAYLOAD,2022-12-06 02:17:08,15.73225756,0.0003475,53.2131,256.0041,10.8514,349.2581,0.00030031,0.00041792,0.0,0 STARLINK-4775,1 53934U 22119BA  22340.09523986  .00041792  00000-0  30031-3 0  9995,2 53934  53.2131 256.0041 0003475  10.8514 349.2581 15.73225756 11789,6727.821999999999,91.532,352.025,347.349,0.0
53934.0,STARLINK-4775,PAYLOAD,2022-12-06 11:26:01,15.73238946,0.0004271,53.214,254.118,17.1902,342.9262,0.00012183,0.00016543,0.0,0 STARLINK-4775,1 53934U 22119BA  22340.47640886  .00016543  00000-0  12183-3 0  9990,2 53934  53.2140 254.1180 0004271  17.1902 342.9262 15.73238946 12285,6727.784000000002,91.531,352.523,346.776,0.0
53934.0,STARLINK-4775,PAYLOAD,2022-12-06 19:03:26,15.73235311,0.0005338999999999,53.2146,252.546,34.6175,325.5191,0.00015692,0.00021503,0.0,0 STARLINK-4775,1 53934U 22119BA  22340.79405236  .00021503  00000-0  15692-3 0  9993,2 53934  53.2146 252.5460 0005339  34.6175 325.5191 15.73235311 11893,6727.795,91.531,353.251,346.0680000000001,0.0
53934.0,STARLINK-4775,PAYLOAD,2022-12-07 04:12:19,15.73213536,0.0003754,53.2139,250.6595,8.6089,351.4995,0.00031868,0.00044379,0.0,0 STARLINK-4775,1 53934U 22119BA  22341.17522104  .00044379  00000-0  31868-3 0  9999,2 53934  53.2139 250.6595 0003754   8.6089 351.4995 15.73213536 11959,6727.857,91.532,352.247,347.196,0.0
53934.0,STARLINK-4775,PAYLOAD,2022-12-07 17:55:39,15.73212761,0.0003446,53.2129,247.83,9.6529,350.4557,0.00025158,0.0003486,0.0,0 STARLINK-4775,1 53934U 22119BA  22341.74698000  .00034860  00000-0  25158-3 0  9990,2 53934  53.2129 247.8300 0003446   9.6529 350.4557 15.73212761 12041,6727.859,91.532,352.042,347.405,0.0
53934.0,STARLINK-4775,PAYLOAD,2022-12-08 00:01:34,15.7324042,0.0003734,53.2135,246.5736,6.6258,353.4811,0.00043098,0.00060423,0.0,0 STARLINK-4775,1 53934U 22119BA  22342.00108997  .00060423  00000-0  43098-3 0  9998,2 53934  53.2135 246.5736 0003734   6.6258 353.4811 15.73240420 12086,6727.78,91.531,352.157,347.1330000000001,0.0
53934.0,STARLINK-4775,PAYLOAD,2022-12-08 10:41:55,15.73249151,0.0003551,53.2127,244.3722,8.0841,352.0235,0.00022739,0.00031486,0.0,0 STARLINK-4775,1 53934U 22119BA  22342.44577562  .00031486  00000-0  22739-3 0  9990,2 53934  53.2127 244.3722 0003551   8.0841 352.0235 15.73249151 12590,6727.755,91.53,352.009,347.231,0.0
53934.0,STARLINK-4775,PAYLOAD,2022-12-09 03:28:09,15.73267914,0.000325,53.2132,240.9167,5.8415,354.2643,3.3829000000000004e-05,4.141e-05,0.0,0 STARLINK-4775,1 53934U 22119BA  22343.14455019  .00004141  00000-0  33829-4 0  9991,2 53934  53.2132 240.9167 0003250   5.8415 354.2643 15.73267914 12706,6727.7019999999975,91.529,351.75300000000016,347.38,0.0
53934.0,STARLINK-4775,PAYLOAD,2022-12-10 00:48:46,15.73194691,0.0002924,53.213,236.5145,10.535,349.5731,-0.00062977,-0.0008808999999999,0.0,0 STARLINK-4775,1 53934U 22119BA  22344.03387131 -.00088090  00000-0 -62977-3 0  9991,2 53934  53.2130 236.5145 0002924  10.5350 349.5731 15.73194691 12402,6727.91,91.533,351.74300000000005,347.80800000000005,0.0
53934.0,STARLINK-4775,PAYLOAD,2022-12-10 02:20:25,15.73141034,0.0001125,53.2133,236.2004,38.6386,321.4714,0.00012048,0.00016279,0.0,0 STARLINK-4775,1 53934U 22119BA  22344.09751541  .00016279  00000-0  12048-3 0  9999,2 53934  53.2133 236.2004 0001125  38.6386 321.4714 15.73141034 12850,6728.063,91.537,350.685,349.171,0.0
53934.0,STARLINK-4775,PAYLOAD,2022-12-10 22:09:40,15.73173737,0.0001973,53.2127,232.1146,26.9503,333.162,5.8973e-05,7.654e-05,0.0,0 STARLINK-4775,1 53934U 22119BA  22344.92338622  .00007654  00000-0  58973-4 0  9997,2 53934  53.2127 232.1146 0001973  26.9503 333.1620 15.73173737 12544,6727.97,91.535,351.162,348.5080000000001,0.0
